start=new Date('2022-03-02T00:00:00.000Z').valueOf();
sats=[{"MEAN_MOTION_DDOT":"0.0000000000000","COUNTRY_CODE":"US","TLE_LINE1":"1 44941U 20001AD  22060.48401181  .00000693  00000-0  65400-4 0  9999","EPHEMERIS_TYPE":"0","PERIAPSIS":"545.935","CLASSIFICATION_TYPE":"U","OBJECT_ID":"2020-001AD","SEMIMAJOR_AXIS":"6925.338","TIME_SYSTEM":"UTC","REV_AT_EPOCH":"11868","INCLINATION":"53.0543","PERIOD":"95.592","ECCENTRICITY":"0.00018310","REF_FRAME":"TEME","NORAD_CAT_ID":"44941","EPOCH":"2022-03-01T11:36:58.620384","MEAN_MOTION_DOT":"0.00000693","TLE_LINE2":"2 44941  53.0543  82.1376 0001831  45.9111 314.2028 15.06403376118684","ELEMENT_SET_NO":"999","LAUNCH_DATE":"2020-01-07","RA_OF_ASC_NODE":"82.1376","MEAN_MOTION":"15.06403376","ARG_OF_PERICENTER":"45.9111","OBJECT_NAME":"STARLINK-1094","CENTER_NAME":"EARTH","MEAN_ELEMENT_THEORY":"SGP4","APOAPSIS":"548.471","RCS_SIZE":"LARGE","DECAY_DATE":null,"SITE":"AFETR","MEAN_ANOMALY":"314.2028","GP_ID":"197488565","OBJECT_TYPE":"PAYLOAD","FILE":"3337314","BSTAR":"0.00006540000000"},{"CLASSIFICATION_TYPE":"U","OBJECT_ID":"2020-001AE","TIME_SYSTEM":"UTC","SEMIMAJOR_AXIS":"6925.341","REV_AT_EPOCH":"11866","INCLINATION":"53.0545","MEAN_MOTION_DDOT":"0.0000000000000","PERIAPSIS":"546.152","TLE_LINE1":"1 44942U 20001AE  22060.33657464  .00000690  00000-0  65201-4 0  9997","COUNTRY_CODE":"US","EPHEMERIS_TYPE":"0","MEAN_MOTION_DOT":"0.00000690","EPOCH":"2022-03-01T08:04:40.048896","TLE_LINE2":"2 44942  53.0545  82.7976 0001521  64.8400 295.2746 15.06402604118662","ELEMENT_SET_NO":"999","PERIOD":"95.592","ECCENTRICITY":"0.00015210","REF_FRAME":"TEME","NORAD_CAT_ID":"44942","MEAN_MOTION":"15.06402604","CENTER_NAME":"EARTH","OBJECT_NAME":"STARLINK-1096","ARG_OF_PERICENTER":"64.8400","LAUNCH_DATE":"2020-01-07","RA_OF_ASC_NODE":"82.7976","GP_ID":"197488816","MEAN_ANOMALY":"295.2746","SITE":"AFETR","OBJECT_TYPE":"PAYLOAD","BSTAR":"0.00006520100000","FILE":"3337314","MEAN_ELEMENT_THEORY":"SGP4","APOAPSIS":"548.259","DECAY_DATE":null,"RCS_SIZE":"LARGE"},{"NORAD_CAT_ID":"44943","PERIOD":"95.592","ECCENTRICITY":"0.00017740","REF_FRAME":"TEME","TLE_LINE2":"2 44943  53.0535  81.7113 0001774  64.1413 295.9759 15.06398979118694","ELEMENT_SET_NO":"999","EPOCH":"2022-03-01T13:54:59.020128","MEAN_MOTION_DOT":"0.00000373","COUNTRY_CODE":"US","TLE_LINE1":"1 44943U 20001AF  22060.57984977  .00000373  00000-0  43970-4 0  9993","EPHEMERIS_TYPE":"0","PERIAPSIS":"545.988","MEAN_MOTION_DDOT":"0.0000000000000","SEMIMAJOR_AXIS":"6925.352","TIME_SYSTEM":"UTC","REV_AT_EPOCH":"11869","INCLINATION":"53.0535","CLASSIFICATION_TYPE":"U","OBJECT_ID":"2020-001AF","APOAPSIS":"548.445","DECAY_DATE":null,"RCS_SIZE":"LARGE","MEAN_ELEMENT_THEORY":"SGP4","FILE":"3338635","BSTAR":"0.00004397000000","MEAN_ANOMALY":"295.9759","SITE":"AFETR","GP_ID":"197541033","OBJECT_TYPE":"PAYLOAD","RA_OF_ASC_NODE":"81.7113","LAUNCH_DATE":"2020-01-07","ARG_OF_PERICENTER":"64.1413","OBJECT_NAME":"STARLINK-1100","CENTER_NAME":"EARTH","MEAN_MOTION":"15.06398979"},{"REF_FRAME":"TEME","ECCENTRICITY":"0.00016670","PERIOD":"95.592","NORAD_CAT_ID":"44944","MEAN_MOTION_DOT":"0.00005397","EPOCH":"2022-03-01T13:28:26.655168","ELEMENT_SET_NO":"999","TLE_LINE2":"2 44944  53.0534  81.7906 0001667  58.4537 301.6614 15.06406920118699","MEAN_MOTION_DDOT":"0.0000000000000","PERIAPSIS":"546.038","EPHEMERIS_TYPE":"0","TLE_LINE1":"1 44944U 20001AG  22060.56141962  .00005397  00000-0  38086-3 0  9994","COUNTRY_CODE":"US","OBJECT_ID":"2020-001AG","CLASSIFICATION_TYPE":"U","REV_AT_EPOCH":"11869","INCLINATION":"53.0534","TIME_SYSTEM":"UTC","SEMIMAJOR_AXIS":"6925.327","MEAN_ELEMENT_THEORY":"SGP4","RCS_SIZE":"LARGE","DECAY_DATE":null,"APOAPSIS":"548.347","OBJECT_TYPE":"PAYLOAD","GP_ID":"197539781","MEAN_ANOMALY":"301.6614","SITE":"AFETR","BSTAR":"0.00038086000000","FILE":"3338635","LAUNCH_DATE":"2020-01-07","RA_OF_ASC_NODE":"81.7906","MEAN_MOTION":"15.06406920","OBJECT_NAME":"STARLINK-1108","CENTER_NAME":"EARTH","ARG_OF_PERICENTER":"58.4537"},{"OBJECT_ID":"2020-001AH","CLASSIFICATION_TYPE":"U","INCLINATION":"53.0541","REV_AT_EPOCH":"11868","SEMIMAJOR_AXIS":"6925.359","TIME_SYSTEM":"UTC","MEAN_MOTION_DDOT":"0.0000000000000","TLE_LINE1":"1 44945U 20001AH  22060.52456402  .00001102  00000-0  92886-4 0  9998","EPHEMERIS_TYPE":"0","COUNTRY_CODE":"US","PERIAPSIS":"545.912","EPOCH":"2022-03-01T12:35:22.331328","MEAN_MOTION_DOT":"0.00001102","ELEMENT_SET_NO":"999","TLE_LINE2":"2 44945  53.0541  81.9497 0001894  59.9438 300.1738 15.06396583118686","REF_FRAME":"TEME","ECCENTRICITY":"0.00018940","PERIOD":"95.592","NORAD_CAT_ID":"44945","MEAN_MOTION":"15.06396583","ARG_OF_PERICENTER":"59.9438","CENTER_NAME":"EARTH","OBJECT_NAME":"STARLINK-1109","LAUNCH_DATE":"2020-01-07","RA_OF_ASC_NODE":"81.9497","OBJECT_TYPE":"PAYLOAD","MEAN_ANOMALY":"300.1738","SITE":"AFETR","GP_ID":"197540031","FILE":"3338635","BSTAR":"0.00009288600000","MEAN_ELEMENT_THEORY":"SGP4","RCS_SIZE":"LARGE","DECAY_DATE":null,"APOAPSIS":"548.536"},{"MEAN_MOTION_DDOT":"0.0000000000000","PERIAPSIS":"534.979","COUNTRY_CODE":"US","TLE_LINE1":"1 44946U 20001AJ  22060.36361447  .00008258  00000-0  51550-3 0  9996","EPHEMERIS_TYPE":"0","OBJECT_ID":"2020-001AJ","CLASSIFICATION_TYPE":"U","INCLINATION":"53.0038","REV_AT_EPOCH":"11873","TIME_SYSTEM":"UTC","SEMIMAJOR_AXIS":"6913.430","REF_FRAME":"TEME","PERIOD":"95.345","ECCENTRICITY":"0.00004570","NORAD_CAT_ID":"44946","MEAN_MOTION_DOT":"0.00008258","EPOCH":"2022-03-01T08:43:36.290208","ELEMENT_SET_NO":"999","TLE_LINE2":"2 44946  53.0038  75.7364 0000457 146.8163 213.2856 15.10297152118735","LAUNCH_DATE":"2020-01-07","RA_OF_ASC_NODE":"75.7364","MEAN_MOTION":"15.10297152","CENTER_NAME":"EARTH","OBJECT_NAME":"STARLINK-1110","ARG_OF_PERICENTER":"146.8163","MEAN_ELEMENT_THEORY":"SGP4","RCS_SIZE":"LARGE","DECAY_DATE":null,"APOAPSIS":"535.611","OBJECT_TYPE":"PAYLOAD","GP_ID":"197489317","SITE":"AFETR","MEAN_ANOMALY":"213.2856","BSTAR":"0.00051550000000","FILE":"3337314"},{"MEAN_MOTION_DOT":"0.00000626","EPOCH":"2022-03-01T11:31:40.683072","TLE_LINE2":"2 44947  53.0541  82.1451 0001876  50.9741 309.1414 15.06392209118680","ELEMENT_SET_NO":"999","PERIOD":"95.593","ECCENTRICITY":"0.00018760","REF_FRAME":"TEME","NORAD_CAT_ID":"44947","CLASSIFICATION_TYPE":"U","OBJECT_ID":"2020-001AK","TIME_SYSTEM":"UTC","SEMIMAJOR_AXIS":"6925.372","REV_AT_EPOCH":"11868","INCLINATION":"53.0541","MEAN_MOTION_DDOT":"0.0000000000000","PERIAPSIS":"545.938","COUNTRY_CODE":"US","TLE_LINE1":"1 44947U 20001AK  22060.48033198  .00000626  00000-0  60916-4 0  9997","EPHEMERIS_TYPE":"0","GP_ID":"197488068","SITE":"AFETR","MEAN_ANOMALY":"309.1414","OBJECT_TYPE":"PAYLOAD","BSTAR":"0.00006091600000","FILE":"3337314","MEAN_ELEMENT_THEORY":"SGP4","APOAPSIS":"548.537","RCS_SIZE":"LARGE","DECAY_DATE":null,"MEAN_MOTION":"15.06392209","OBJECT_NAME":"STARLINK-1116","CENTER_NAME":"EARTH","ARG_OF_PERICENTER":"50.9741","LAUNCH_DATE":"2020-01-07","RA_OF_ASC_NODE":"82.1451"},{"CLASSIFICATION_TYPE":"U","OBJECT_ID":"2020-001AM","TIME_SYSTEM":"UTC","SEMIMAJOR_AXIS":"6925.344","INCLINATION":"53.0536","REV_AT_EPOCH":"11869","MEAN_MOTION_DDOT":"0.0000000000000","PERIAPSIS":"545.986","TLE_LINE1":"1 44949U 20001AM  22060.57247848  .00001256  00000-0  10323-3 0  9994","COUNTRY_CODE":"US","EPHEMERIS_TYPE":"0","MEAN_MOTION_DOT":"0.00001256","EPOCH":"2022-03-01T13:44:22.140672","TLE_LINE2":"2 44949  53.0536  81.7461 0001766  55.4317 304.6838 15.06401442118690","ELEMENT_SET_NO":"999","ECCENTRICITY":"0.00017660","PERIOD":"95.592","REF_FRAME":"TEME","NORAD_CAT_ID":"44949","MEAN_MOTION":"15.06401442","OBJECT_NAME":"STARLINK-1122","CENTER_NAME":"EARTH","ARG_OF_PERICENTER":"55.4317","LAUNCH_DATE":"2020-01-07","RA_OF_ASC_NODE":"81.7461","GP_ID":"197539282","SITE":"AFETR","MEAN_ANOMALY":"304.6838","OBJECT_TYPE":"PAYLOAD","BSTAR":"0.00010323000000","FILE":"3338635","MEAN_ELEMENT_THEORY":"SGP4","APOAPSIS":"548.432","RCS_SIZE":"LARGE","DECAY_DATE":null},{"MEAN_MOTION_DOT":"0.00000952","EPOCH":"2022-03-01T12:30:03.648384","ELEMENT_SET_NO":"999","TLE_LINE2":"2 44950  53.0537  81.9702 0001561  60.4584 299.6561 15.06396303118682","REF_FRAME":"TEME","PERIOD":"95.592","ECCENTRICITY":"0.00015610","NORAD_CAT_ID":"44950","OBJECT_ID":"2020-001AN","CLASSIFICATION_TYPE":"U","INCLINATION":"53.0537","REV_AT_EPOCH":"11868","TIME_SYSTEM":"UTC","SEMIMAJOR_AXIS":"6925.360","MEAN_MOTION_DDOT":"0.0000000000000","PERIAPSIS":"546.144","TLE_LINE1":"1 44950U 20001AN  22060.52087556  .00000952  00000-0  82830-4 0  9994","COUNTRY_CODE":"US","EPHEMERIS_TYPE":"0","OBJECT_TYPE":"PAYLOAD","GP_ID":"197488566","MEAN_ANOMALY":"299.6561","SITE":"AFETR","BSTAR":"0.00008283000000","FILE":"3337314","MEAN_ELEMENT_THEORY":"SGP4","DECAY_DATE":null,"RCS_SIZE":"LARGE","APOAPSIS":"548.306","MEAN_MOTION":"15.06396303","CENTER_NAME":"EARTH","OBJECT_NAME":"STARLINK-1125","ARG_OF_PERICENTER":"60.4584","LAUNCH_DATE":"2020-01-07","RA_OF_ASC_NODE":"81.9702"},{"BSTAR":"0.00057623000000","FILE":"3337314","GP_ID":"197488817","MEAN_ANOMALY":"207.5108","SITE":"AFETR","OBJECT_TYPE":"PAYLOAD","APOAPSIS":"536.131","RCS_SIZE":"LARGE","DECAY_DATE":null,"MEAN_ELEMENT_THEORY":"SGP4","CENTER_NAME":"EARTH","OBJECT_NAME":"STARLINK-1126","ARG_OF_PERICENTER":"152.5910","MEAN_MOTION":"15.10142679","RA_OF_ASC_NODE":"75.7543","LAUNCH_DATE":"2020-01-07","TLE_LINE2":"2 44951  53.0027  75.7543 0000527 152.5910 207.5108 15.10142679120035","ELEMENT_SET_NO":"999","MEAN_MOTION_DOT":"0.00009227","EPOCH":"2022-03-01T12:11:40.167456","NORAD_CAT_ID":"44951","ECCENTRICITY":"0.00005270","PERIOD":"95.355","REF_FRAME":"TEME","TIME_SYSTEM":"UTC","SEMIMAJOR_AXIS":"6913.901","REV_AT_EPOCH":"12003","INCLINATION":"53.0027","CLASSIFICATION_TYPE":"U","OBJECT_ID":"2020-001AP","PERIAPSIS":"535.402","TLE_LINE1":"1 44951U 20001AP  22060.50810379  .00009227  00000-0  57623-3 0  9995","COUNTRY_CODE":"US","EPHEMERIS_TYPE":"0","MEAN_MOTION_DDOT":"0.0000000000000"}];
